start=new Date('2022-08-09T00:00:00.000Z').valueOf();
sats=[{"OBJECT_NAME":"STARLINK-1264","GP_ID":"209858921","EPOCH":"2022-08-08T20:12:02.069568","APOAPSIS":"548.021","MEAN_MOTION_DDOT":"0.0000000000000","RA_OF_ASC_NODE":"262.2510","LAUNCH_DATE":"2020-03-18","EPHEMERIS_TYPE":"0","DECAY_DATE":null,"PERIOD":"95.591","OBJECT_ID":"2020-019Y","INCLINATION":"53.0528","SEMIMAJOR_AXIS":"6925.315","CLASSIFICATION_TYPE":"U","MEAN_ANOMALY":"277.8807","OBJECT_TYPE":"PAYLOAD","NORAD_CAT_ID":"45382","ARG_OF_PERICENTER":"82.2319","MEAN_MOTION_DOT":"0.00001171","ECCENTRICITY":"0.00012140","TLE_LINE2":"2 45382  53.0528 262.2510 0001214  82.2319 277.8807 15.06410878132553","FILE":"3532305","BSTAR":"0.00009748400000","REF_FRAME":"TEME","TLE_LINE1":"1 45382U 20019Y   22220.84169062  .00001171  00000-0  97484-4 0  9994","ELEMENT_SET_NO":"999","REV_AT_EPOCH":"13255","TIME_SYSTEM":"UTC","PERIAPSIS":"546.339","COUNTRY_CODE":"US","MEAN_ELEMENT_THEORY":"SGP4","CENTER_NAME":"EARTH","MEAN_MOTION":"15.06410878","SITE":"AFETR","RCS_SIZE":"LARGE"},{"SEMIMAJOR_AXIS":"6925.325","CLASSIFICATION_TYPE":"U","OBJECT_TYPE":"PAYLOAD","MEAN_ANOMALY":"265.7573","DECAY_DATE":null,"PERIOD":"95.592","OBJECT_ID":"2020-019Z","INCLINATION":"53.0538","ECCENTRICITY":"0.00011990","NORAD_CAT_ID":"45383","ARG_OF_PERICENTER":"94.3553","MEAN_MOTION_DOT":"0.00001193","APOAPSIS":"548.020","MEAN_MOTION_DDOT":"0.0000000000000","OBJECT_NAME":"STARLINK-1266","GP_ID":"209859173","EPOCH":"2022-08-08T20:34:37.644960","EPHEMERIS_TYPE":"0","LAUNCH_DATE":"2020-03-18","RA_OF_ASC_NODE":"262.2076","COUNTRY_CODE":"US","PERIAPSIS":"546.360","RCS_SIZE":"LARGE","CENTER_NAME":"EARTH","MEAN_ELEMENT_THEORY":"SGP4","MEAN_MOTION":"15.06407725","SITE":"AFETR","BSTAR":"0.00009893400000","FILE":"3532305","REF_FRAME":"TEME","ELEMENT_SET_NO":"999","TLE_LINE1":"1 45383U 20019Z   22220.85738015  .00001193  00000-0  98934-4 0  9991","TLE_LINE2":"2 45383  53.0538 262.2076 0001199  94.3553 265.7573 15.06407725132731","REV_AT_EPOCH":"13273","TIME_SYSTEM":"UTC"},{"TIME_SYSTEM":"UTC","REV_AT_EPOCH":"13273","TLE_LINE2":"2 45384  53.0538 262.2503 0001323  76.9496 283.1640 15.06403362132730","BSTAR":"0.00006118100000","FILE":"3532305","REF_FRAME":"TEME","ELEMENT_SET_NO":"999","TLE_LINE1":"1 45384U 20019AA  22220.84538569  .00000630  00000-0  61181-4 0  9992","MEAN_MOTION":"15.06403362","SITE":"AFETR","CENTER_NAME":"EARTH","MEAN_ELEMENT_THEORY":"SGP4","RCS_SIZE":"LARGE","PERIAPSIS":"546.287","COUNTRY_CODE":"US","RA_OF_ASC_NODE":"262.2503","EPHEMERIS_TYPE":"0","LAUNCH_DATE":"2020-03-18","EPOCH":"2022-08-08T20:17:21.323616","OBJECT_NAME":"STARLINK-1267","GP_ID":"209859423","MEAN_MOTION_DDOT":"0.0000000000000","APOAPSIS":"548.119","MEAN_MOTION_DOT":"0.00000630","NORAD_CAT_ID":"45384","ARG_OF_PERICENTER":"76.9496","ECCENTRICITY":"0.00013230","INCLINATION":"53.0538","PERIOD":"95.592","DECAY_DATE":null,"OBJECT_ID":"2020-019AA","CLASSIFICATION_TYPE":"U","OBJECT_TYPE":"PAYLOAD","MEAN_ANOMALY":"283.1640","SEMIMAJOR_AXIS":"6925.338"},{"OBJECT_ID":"2020-019AC","PERIOD":"95.592","DECAY_DATE":null,"INCLINATION":"53.0523","SEMIMAJOR_AXIS":"6925.337","MEAN_ANOMALY":"275.0542","OBJECT_TYPE":"PAYLOAD","CLASSIFICATION_TYPE":"U","ARG_OF_PERICENTER":"85.0624","NORAD_CAT_ID":"45386","MEAN_MOTION_DOT":"0.00004822","ECCENTRICITY":"0.00015550","GP_ID":"209858172","OBJECT_NAME":"STARLINK-1272","EPOCH":"2022-08-08T20:24:03.105216","APOAPSIS":"548.279","MEAN_MOTION_DDOT":"0.0000000000000","RA_OF_ASC_NODE":"262.2405","EPHEMERIS_TYPE":"0","LAUNCH_DATE":"2020-03-18","PERIAPSIS":"546.125","COUNTRY_CODE":"US","MEAN_ELEMENT_THEORY":"SGP4","CENTER_NAME":"EARTH","SITE":"AFETR","MEAN_MOTION":"15.06403767","RCS_SIZE":"LARGE","TLE_LINE2":"2 45386  53.0523 262.2405 0001555  85.0624 275.0542 15.06403767132738","ELEMENT_SET_NO":"999","TLE_LINE1":"1 45386U 20019AC  22220.85003594  .00004822  00000-0  34238-3 0  9999","FILE":"3532305","REF_FRAME":"TEME","BSTAR":"0.00034238000000","REV_AT_EPOCH":"13273","TIME_SYSTEM":"UTC"},{"ARG_OF_PERICENTER":"84.2772","NORAD_CAT_ID":"45387","MEAN_MOTION_DOT":"0.00001600","ECCENTRICITY":"0.00013070","OBJECT_ID":"2020-019AD","DECAY_DATE":null,"PERIOD":"95.592","INCLINATION":"53.0533","SEMIMAJOR_AXIS":"6925.336","OBJECT_TYPE":"PAYLOAD","MEAN_ANOMALY":"275.8366","CLASSIFICATION_TYPE":"U","RA_OF_ASC_NODE":"262.4279","EPHEMERIS_TYPE":"0","LAUNCH_DATE":"2020-03-18","GP_ID":"209858422","OBJECT_NAME":"STARLINK-1274","EPOCH":"2022-08-08T19:20:19.487040","APOAPSIS":"548.106","MEAN_MOTION_DDOT":"0.0000000000000","MEAN_ELEMENT_THEORY":"SGP4","CENTER_NAME":"EARTH","SITE":"AFETR","MEAN_MOTION":"15.06404229","RCS_SIZE":"LARGE","PERIAPSIS":"546.295","COUNTRY_CODE":"US","REV_AT_EPOCH":"13272","TIME_SYSTEM":"UTC","TLE_LINE2":"2 45387  53.0533 262.4279 0001307  84.2772 275.8366 15.06404229132726","ELEMENT_SET_NO":"999","TLE_LINE1":"1 45387U 20019AD  22220.80578110  .00001600  00000-0  12628-3 0  9996","BSTAR":"0.00012628000000","FILE":"3532305","REF_FRAME":"TEME"},{"COUNTRY_CODE":"US","PERIAPSIS":"546.434","RCS_SIZE":"LARGE","MEAN_ELEMENT_THEORY":"SGP4","CENTER_NAME":"EARTH","SITE":"AFETR","MEAN_MOTION":"15.06405934","BSTAR":"0.00013214000000","FILE":"3532305","REF_FRAME":"TEME","ELEMENT_SET_NO":"999","TLE_LINE1":"1 45388U 20019AE  22220.57540773  .00001688  00000-0  13214-3 0  9993","TLE_LINE2":"2 45388  53.0550 283.4600 0001099  78.5826 281.5287 15.06405934132406","REV_AT_EPOCH":"13240","TIME_SYSTEM":"UTC","SEMIMAJOR_AXIS":"6925.330","CLASSIFICATION_TYPE":"U","OBJECT_TYPE":"PAYLOAD","MEAN_ANOMALY":"281.5287","PERIOD":"95.592","DECAY_DATE":null,"OBJECT_ID":"2020-019AE","INCLINATION":"53.0550","ECCENTRICITY":"0.00010990","NORAD_CAT_ID":"45388","ARG_OF_PERICENTER":"78.5826","MEAN_MOTION_DOT":"0.00001688","APOAPSIS":"547.956","MEAN_MOTION_DDOT":"0.0000000000000","OBJECT_NAME":"STARLINK-1280","GP_ID":"209859672","EPOCH":"2022-08-08T13:48:35.227872","EPHEMERIS_TYPE":"0","LAUNCH_DATE":"2020-03-18","RA_OF_ASC_NODE":"283.4600"},{"RCS_SIZE":"LARGE","MEAN_ELEMENT_THEORY":"SGP4","CENTER_NAME":"EARTH","SITE":"AFETR","MEAN_MOTION":"15.06405352","COUNTRY_CODE":"US","PERIAPSIS":"546.235","REV_AT_EPOCH":"13273","TIME_SYSTEM":"UTC","ELEMENT_SET_NO":"999","TLE_LINE1":"1 45389U 20019AF  22220.82051736  .00002824  00000-0  20834-3 0  9997","FILE":"3532305","REF_FRAME":"TEME","BSTAR":"0.00020834000000","TLE_LINE2":"2 45389  53.0541 262.3757 0001390  70.0968 290.0170 15.06405352132730","ECCENTRICITY":"0.00013900","ARG_OF_PERICENTER":"70.0968","NORAD_CAT_ID":"45389","MEAN_MOTION_DOT":"0.00002824","SEMIMAJOR_AXIS":"6925.332","MEAN_ANOMALY":"290.0170","OBJECT_TYPE":"PAYLOAD","CLASSIFICATION_TYPE":"U","OBJECT_ID":"2020-019AF","PERIOD":"95.592","DECAY_DATE":null,"INCLINATION":"53.0541","LAUNCH_DATE":"2020-03-18","EPHEMERIS_TYPE":"0","RA_OF_ASC_NODE":"262.3757","APOAPSIS":"548.160","MEAN_MOTION_DDOT":"0.0000000000000","GP_ID":"209859923","OBJECT_NAME":"STARLINK-1283","EPOCH":"2022-08-08T19:41:32.699904"},{"TLE_LINE2":"2 45390  53.0532 263.6604 0001306  76.6272 283.4863 15.06405109132683","FILE":"3532305","BSTAR":"0.00006987500000","REF_FRAME":"TEME","TLE_LINE1":"1 45390U 20019AG  22220.52933393  .00000760  00000-0  69875-4 0  9990","ELEMENT_SET_NO":"999","REV_AT_EPOCH":"13268","TIME_SYSTEM":"UTC","PERIAPSIS":"546.293","COUNTRY_CODE":"US","CENTER_NAME":"EARTH","MEAN_ELEMENT_THEORY":"SGP4","SITE":"AFETR","MEAN_MOTION":"15.06405109","RCS_SIZE":"LARGE","OBJECT_NAME":"STARLINK-1284","GP_ID":"209858672","EPOCH":"2022-08-08T12:42:14.451552","APOAPSIS":"548.102","MEAN_MOTION_DDOT":"0.0000000000000","RA_OF_ASC_NODE":"263.6604","EPHEMERIS_TYPE":"0","LAUNCH_DATE":"2020-03-18","DECAY_DATE":null,"PERIOD":"95.592","OBJECT_ID":"2020-019AG","INCLINATION":"53.0532","SEMIMAJOR_AXIS":"6925.333","CLASSIFICATION_TYPE":"U","MEAN_ANOMALY":"283.4863","OBJECT_TYPE":"PAYLOAD","NORAD_CAT_ID":"45390","ARG_OF_PERICENTER":"76.6272","MEAN_MOTION_DOT":"0.00000760","ECCENTRICITY":"0.00013060"},{"BSTAR":"0.00000665600000","FILE":"3532248","REF_FRAME":"TEME","ELEMENT_SET_NO":"999","TLE_LINE1":"1 45391U 20019AH  22220.80852511 -.00000182  00000-0  66560-5 0  9992","TLE_LINE2":"2 45391  53.0541 262.4121 0001165  79.1315 280.9805 15.06393680132457","TIME_SYSTEM":"UTC","REV_AT_EPOCH":"13245","COUNTRY_CODE":"US","PERIAPSIS":"546.426","RCS_SIZE":"LARGE","SITE":"AFETR","MEAN_MOTION":"15.06393680","MEAN_ELEMENT_THEORY":"SGP4","CENTER_NAME":"EARTH","MEAN_MOTION_DDOT":"0.0000000000000","APOAPSIS":"548.040","EPOCH":"2022-08-08T19:24:16.569504","OBJECT_NAME":"STARLINK-1289","GP_ID":"209838351","LAUNCH_DATE":"2020-03-18","EPHEMERIS_TYPE":"0","RA_OF_ASC_NODE":"262.4121","CLASSIFICATION_TYPE":"U","MEAN_ANOMALY":"280.9805","OBJECT_TYPE":"PAYLOAD","SEMIMAJOR_AXIS":"6925.368","INCLINATION":"53.0541","DECAY_DATE":null,"PERIOD":"95.593","OBJECT_ID":"2020-019AH","ECCENTRICITY":"0.00011650","MEAN_MOTION_DOT":"-0.00000182","NORAD_CAT_ID":"45391","ARG_OF_PERICENTER":"79.1315"},{"TIME_SYSTEM":"UTC","REV_AT_EPOCH":"13256","TLE_LINE2":"2 45392  52.9942 249.2877 0000709 138.3228 221.7819 15.15459476132562","TLE_LINE1":"1 45392U 20019AJ  22220.56112815  .00010751  00000-0  57686-3 0  9991","ELEMENT_SET_NO":"999","REF_FRAME":"TEME","FILE":"3532305","BSTAR":"0.00057686000000","SITE":"AFETR","MEAN_MOTION":"15.15459476","CENTER_NAME":"EARTH","MEAN_ELEMENT_THEORY":"SGP4","RCS_SIZE":"LARGE","PERIAPSIS":"519.097","COUNTRY_CODE":"US","RA_OF_ASC_NODE":"249.2877","LAUNCH_DATE":"2020-03-18","EPHEMERIS_TYPE":"0","EPOCH":"2022-08-08T13:28:01.472160","GP_ID":"209859174","OBJECT_NAME":"STARLINK-1290","MEAN_MOTION_DDOT":"0.0000000000000","APOAPSIS":"520.075","MEAN_MOTION_DOT":"0.00010751","ARG_OF_PERICENTER":"138.3228","NORAD_CAT_ID":"45392","ECCENTRICITY":"0.00007090","INCLINATION":"52.9942","OBJECT_ID":"2020-019AJ","DECAY_DATE":null,"PERIOD":"95.021","OBJECT_TYPE":"PAYLOAD","MEAN_ANOMALY":"221.7819","CLASSIFICATION_TYPE":"U","SEMIMAJOR_AXIS":"6897.721"}];
